#aV2007 10 17  0  0   .00000000      96 DD+AD WGS84 FIT  NGA
## 1449 259200.00000000   900.00000000 54390  .0000000000000
+   31     1  2  3  4  5  6  7  8  9 10 11 12 13 14 16 17 18
+         19 20 21 22 23 24 25 26 27 28 29 30 31 32  0  0  0
+          0  0  0  0  0  0  0  0  0  0  0  0  0  0  0  0  0
+          0  0  0  0  0  0  0  0  0  0  0  0  0  0  0  0  0
+          0  0  0  0  0  0  0  0  0  0  0  0  0  0  0  0  0
++         0  0  0  0  0  0  0  0  0  0  0  0  0  0  0  0  0
++         0  0  0  0  0  0  0  0  0  0  0  0  0  0  0  0  0
++         0  0  0  0  0  0  0  0  0  0  0  0  0  0  0  0  0
++         0  0  0  0  0  0  0  0  0  0  0  0  0  0  0  0  0
++         0  0  0  0  0  0  0  0  0  0  0  0  0  0  0  0  0
%c cc cc ccc ccc cccc cccc cccc cccc ccccc ccccc ccccc ccccc
%c cc cc ccc ccc cccc cccc cccc cccc ccccc ccccc ccccc ccccc
%f  0.0000000  0.000000000  0.00000000000  0.000000000000000
%f  0.0000000  0.000000000  0.00000000000  0.000000000000000
%i    0    0    0    0      0      0      0      0         0
%i    0    0    0    0      0      0      0      0         0
/*      NGA, ST. LOUIS,MO.                                  
/*   EPHEMERIS COMPUTED FROM  3 DAYS OF DATA                
/* CCCCCCCCCCCCCCCCCCCCCCCCCCCCCCCCCCCCCCCCCCCCCCCCCCCCCCCCC
/* CCCCCCCCCCCCCCCCCCCCCCCCCCCCCCCCCCCCCCCCCCCCCCCCCCCCCCCCC
*  2007 10 17  8 45   .00000000                                                 
P  1 -18173.527857 -17096.103005   9432.360571    160.098612                    
V  1  10921.034677   4243.042262  29321.577571       .027335                    
P  2  12972.876864  17079.869002 -16050.277534    144.265291                    
V  2   -398.125416  20048.006778  20957.605541       .027808                    
P  3 -24438.413864 -10698.069579  -2186.460377    130.814639                    
V  3   3567.034561  -2503.148909 -30583.585339       .054828                    
P  4   6256.492003  24771.646580  -6598.008225    -14.693654                    
V  4  -2954.135081   8578.738174  30099.722857      -.036906                    
P  5  20851.407046 -16294.195258    734.148198    475.237560                    
V  5   1304.722538   3573.277756  31372.612114       .282131                    
P  6  11165.982777 -11894.229157 -20780.866241    235.197542                    
V  6  24331.652397  11513.536410   6399.136658      -.056950                    
P  7   8798.008619 -13142.989896 -21007.523902    -49.130964                    
V  7  25335.232312  10836.798776   3734.143231       .142763                    
P  8   -497.095498  26254.605971  -1641.954486   -126.780956                    
V  8  -2632.343146  -1919.800091 -32401.473274      -.014318                    
P  9  14049.457389  -5647.153507  21192.368268     92.462012                    
V  9   3643.866600  28140.490816   5121.014618       .016251                    
P 10  18055.074874   4210.923639 -19255.360752   -110.708990                    
V 10 -19695.222734  13891.495946 -15207.591589      -.135301                    
P 11 -14638.326335   8608.637888  20258.662983     24.993813                    
V 11  -7517.597035 -25288.124641   5597.079497       .004505                    
P 12  23485.817751 -10760.059807   6114.748858   -345.133461                    
V 12  -4822.943524   6540.211751  30547.067099      -.013026                    
P 13 -10020.955878  10926.347299 -22140.480556    214.438987                    
V 13 -24356.751207 -13333.009414   4487.656057       .027504                    
P 14  -8553.984403 -17718.758906  17982.730980   -326.236010                    
V 14  20512.587097   9407.106744  19030.210448       .024429                    
P 16 -13694.600603  -8515.011695 -21062.432947    120.049096                    
V 16  22137.815302 -15236.519347  -8045.925800       .020193                    
P 17   7058.727023  17886.623638  18398.984920     51.515935                    
V 17 -21493.497329  -9058.593792  16929.888273      -.011537                    
P 18  14507.414321 -18813.806789  11667.443856   -230.811225                    
V 18  14008.279916  -5333.393490 -26737.603955       .020244                    
P 19 -24095.260972  -5762.171773   9863.592269      1.703217                    
V 19  -9507.663017  -8264.140501 -28165.278242       .022218                    
P 20 -22726.192600  13393.050414   2825.974299    127.769436                    
V 20   1238.448750  -4725.361799  31272.537424      -.006280                    
P 21   7089.764230 -22728.189137 -10983.397742     77.492053                    
V 21   4124.328765  14264.740481 -27085.552421      -.003433                    
P 22   1717.579584 -17737.734394  19844.369085    200.704887                    
V 22  21909.936274 -11897.210437 -12677.034462       .011074                    
P 23 -20047.796871   3362.023554 -17287.499685    300.667646                    
V 23 -18894.869465 -10757.045290  19673.744154       .035755                    
P 24  12744.562684 -14185.983309 -18411.969042     38.944787                    
V 24   1947.727855  23660.010060 -16419.128896       .030576                    
P 25  -7975.950693  19494.634016 -15908.582092    463.052244                    
V 25  -5337.274859 -20205.911605 -21447.369554       .073982                    
P 26  24560.754794   8533.417221   6248.357355     64.526429                    
V 26   6762.965395   5145.178273 -30800.678548       .128116                    
P 27  -3875.070941  23848.733358 -10131.688327    141.801238                    
V 27  -4490.958640 -13416.264392 -28275.043374       .023943                    
P 28  -4682.571024  18483.192189  18689.470757     -8.753026                    
V 28 -20320.818175  11185.060742 -16802.842093      -.006052                    
P 29  24659.175753  10162.675714   2619.412828      6.059233                    
V 29   2048.537573   2715.709107 -31888.812324       .000333                    
P 30  18294.112633 -18441.385965  -5601.771309     49.267168                    
V 30   7317.189783  -1410.089344  30428.152643       .012325                    
P 31  -7958.840206 -23624.239595  -8856.636441      5.787301                    
V 31   1687.398212 -11705.878083  29125.786065      -.013346                    
P 32  -9070.895533 -12274.933956  22199.071670    103.367617                    
V 32  23462.571777 -13439.371110   2340.736296       .148916                    
EOF
